{"type": "FeatureCollection", "features": [ {"type": "Feature", "properties": {"norad_id": 66757, "name": "TRANSPORTER-15CV", "group": "last-30-days", "lat": 0.9601244890999073, "lon": 71.74410164646007, "alt_km": 514.299766118871, "timestamp": "2025-12-26T07:29:17.193040+00:00", "meta": {"OBJECT_NAME": "TRANSPORTER-15CV", "OBJECT_ID": "2025-276CV", "EPOCH": "2025-12-25T21:59:32.612352", "MEAN_MOTION": 15.18105386, "ECCENTRICITY": 4.233e-05, "INCLINATION": 97.4415, "RA_OF_ASC_NODE": 71.4805, "ARG_OF_PERICENTER": 64.6544, "MEAN_ANOMALY": 295.4734, "EPHEMERIS_TYPE": 0, "CLASSIFICATION_TYPE": "U", "NORAD_CAT_ID": 66757, "ELEMENT_SET_NO": 999, "REV_AT_EPOCH": 412, "BSTAR": 0.0018455706, "MEAN_MOTION_DOT": 0.00037735, "MEAN_MOTION_DDOT": 0}, "tle": {"line1": "1 66757U 25276CV  25359.91634968  .00037735  00000+0  18456-2 0  9993", "line2": "2 66757  97.4415  71.4805 0000423  64.6544 295.4734 15.18105386  4125"}}, "geometry": {"type": "Point", "coordinates": [71.74410164646007, 0.9601244890999073]}}, {"type": "Feature", "properties": {"norad_id": 66758, "name": "TRANSPORTER-15CW", "group": "last-30-days", "lat": 2.590300955326532, "lon": 71.52038495818276, "alt_km": 514.9757877168267, "timestamp": "2025-12-26T07:29:17.193051+00:00", "meta": {"OBJECT_NAME": "TRANSPORTER-15CW", "OBJECT_ID": "2025-276CW", "EPOCH": "2025-12-25T21:59:06.436608", "MEAN_MOTION": 15.18110496, "ECCENTRICITY": 0.00015451, "INCLINATION": 97.4386, "RA_OF_ASC_NODE": 71.4698, "ARG_OF_PERICENTER": 135.0257, "MEAN_ANOMALY": 225.1103, "EPHEMERIS_TYPE": 0, "CLASSIFICATION_TYPE": "U", "NORAD_CAT_ID": 66758, "ELEMENT_SET_NO": 999, "REV_AT_EPOCH": 412, "BSTAR": 0.0003237294, "MEAN_MOTION_DOT": 6.537e-05, "MEAN_MOTION_DDOT": 0}, "tle": {"line1": "1 66758U 25276CW  25359.91604672  .00006537  00000+0  32373-3 0  9994", "line2": "2 66758  97.4386  71.4698 0001545 135.0257 225.1103 15.18110496  4121"}}, "geometry": {"type": "Point", "coordinates": [71.52038495818276, 2.590300955326532]}}, {"type": "Feature", "properties": {"norad_id": 66759, "name": "TRANSPORTER-15CX", "group": "last-30-days", "lat": 13.843321694674374, "lon": 70.01914104430561, "alt_km": 513.1802583825065, "timestamp": "2025-12-26T07:29:17.193061+00:00", "meta": {"OBJECT_NAME": "TRANSPORTER-15CX", "OBJECT_ID": "2025-276CX", "EPOCH": "2025-12-25T21:56:17.249856", "MEAN_MOTION": 15.18503633, "ECCENTRICITY": 0.00033655, "INCLINATION": 97.44, "RA_OF_ASC_NODE": 71.473, "ARG_OF_PERICENTER": 170.6881, "MEAN_ANOMALY": 189.4417, "EPHEMERIS_TYPE": 0, "CLASSIFICATION_TYPE": "U", "NORAD_CAT_ID": 66759, "ELEMENT_SET_NO": 999, "REV_AT_EPOCH": 412, "BSTAR": 0.0085258186, "MEAN_MOTION_DOT": 0.00180064, "MEAN_MOTION_DDOT": 0}, "tle": {"line1": "1 66759U 25276CX  25359.91408854  .00180064  00000+0  85258-2 0  9996", "line2": "2 66759  97.4400  71.4730 0003365 170.6881 189.4417 15.18503633  4125"}}, "geometry": {"type": "Point", "coordinates": [70.01914104430561, 13.843321694674374]}}, {"type": "Feature", "properties": {"norad_id": 66760, "name": "TRANSPORTER-15CY", "group": "last-30-days", "lat": 14.944289759317847, "lon": 69.86757745143014, "alt_km": 512.2545164042367, "timestamp": "2025-12-26T07:29:17.193071+00:00", "meta": {"OBJECT_NAME": "TRANSPORTER-15CY", "OBJECT_ID": "2025-276CY", "EPOCH": "2025-12-25T21:55:51.969216", "MEAN_MOTION": 15.18224191, "ECCENTRICITY": 0.00017507, "INCLINATION": 97.4391, "RA_OF_ASC_NODE": 71.4746, "ARG_OF_PERICENTER": 112.1225, "MEAN_ANOMALY": 248.0195, "EPHEMERIS_TYPE": 0, "CLASSIFICATION_TYPE": "U", "NORAD_CAT_ID": 66760, "ELEMENT_SET_NO": 999, "REV_AT_EPOCH": 412, "BSTAR": 0.00030864103, "MEAN_MOTION_DOT": 6.25e-05, "MEAN_MOTION_DDOT": 0}, "tle": {"line1": "1 66760U 25276CY  25359.91379594  .00006250  00000+0  30864-3 0  9994", "line2": "2 66760  97.4391  71.4746 0001750 112.1225 248.0195 15.18224191  4126"}}, "geometry": {"type": "Point", "coordinates": [69.86757745143014, 14.944289759317847]}}, {"type": "Feature", "properties": {"norad_id": 66761, "name": "TRANSPORTER-15CZ", "group": "last-30-days", "lat": 32.31238465506306, "lon": 67.13290670401952, "alt_km": 508.35525370088817, "timestamp": "2025-12-26T07:29:17.193081+00:00", "meta": {"OBJECT_NAME": "TRANSPORTER-15CZ", "OBJECT_ID": "2025-276CZ", "EPOCH": "2025-12-25T21:51:21.933792", "MEAN_MOTION": 15.18540559, "ECCENTRICITY": 0.00017383, "INCLINATION": 97.439, "RA_OF_ASC_NODE": 71.4784, "ARG_OF_PERICENTER": 121.8687, "MEAN_ANOMALY": 238.2717, "EPHEMERIS_TYPE": 0, "CLASSIFICATION_TYPE": "U", "NORAD_CAT_ID": 66761, "ELEMENT_SET_NO": 999, "REV_AT_EPOCH": 412, "BSTAR": 0.00051082749, "MEAN_MOTION_DOT": 0.00010489, "MEAN_MOTION_DDOT": 0}, "tle": {"line1": "1 66761U 25276CZ  25359.91067053  .00010489  00000+0  51083-3 0  9994", "line2": "2 66761  97.4390  71.4784 0001738 121.8687 238.2717 15.18540559  4123"}}, "geometry": {"type": "Point", "coordinates": [67.13290670401952, 32.31238465506306]}}, {"type": "Feature", "properties": {"norad_id": 66762, "name": "HYDROGNSS-1", "group": "last-30-days", "lat": -67.15799214830226, "lon": 89.90819802783436, "alt_km": 520.8403314375719, "timestamp": "2025-12-26T07:29:17.193093+00:00", "meta": {"OBJECT_NAME": "HYDROGNSS-1", "OBJECT_ID": "2025-276DA", "EPOCH": "2025-12-25T22:17:32.963136", "MEAN_MOTION": 15.17325511, "ECCENTRICITY": 9.908e-05, "INCLINATION": 97.4403, "RA_OF_ASC_NODE": 71.4578, "ARG_OF_PERICENTER": 233.7035, "MEAN_ANOMALY": 126.4107, "EPHEMERIS_TYPE": 0, "CLASSIFICATION_TYPE": "U", "NORAD_CAT_ID": 66762, "ELEMENT_SET_NO": 999, "REV_AT_EPOCH": 412, "BSTAR": 0.00028703817, "MEAN_MOTION_DOT": 5.659e-05, "MEAN_MOTION_DDOT": 0}, "tle": {"line1": "1 66762U 25276DA  25359.92885374  .00005659  00000+0  28704-3 0  9997", "line2": "2 66762  97.4403  71.4578 0000990 233.7035 126.4107 15.17325511  4128"}}, "geometry": {"type": "Point", "coordinates": [89.90819802783436, -67.15799214830226]}}, {"type": "Feature", "properties": {"norad_id": 66763, "name": "HYDROGNSS-2", "group": "last-30-days", "lat": -55.05676554969906, "lon": 82.62369242211659, "alt_km": 520.5129750530077, "timestamp": "2025-12-26T07:29:17.193103+00:00", "meta": {"OBJECT_NAME": "HYDROGNSS-2", "OBJECT_ID": "2025-276DB", "EPOCH": "2025-12-25T22:14:16.200960", "MEAN_MOTION": 15.17449948, "ECCENTRICITY": 0.00016382, "INCLINATION": 97.4407, "RA_OF_ASC_NODE": 71.465, "ARG_OF_PERICENTER": 221.0377, "MEAN_ANOMALY": 139.0734, "EPHEMERIS_TYPE": 0, "CLASSIFICATION_TYPE": "U", "NORAD_CAT_ID": 66763, "ELEMENT_SET_NO": 999, "REV_AT_EPOCH": 412, "BSTAR": 0.00019035033, "MEAN_MOTION_DOT": 3.743e-05, "MEAN_MOTION_DDOT": 0}, "tle": {"line1": "1 66763U 25276DB  25359.92657640  .00003743  00000+0  19035-3 0  9990", "line2": "2 66763  97.4407  71.4650 0001638 221.0377 139.0734 15.17449948  4120"}}, "geometry": {"type": "Point", "coordinates": [82.62369242211659, -55.05676554969906]}}, {"type": "Feature", "properties": {"norad_id": 66764, "name": "TRANSPORTER-15DC", "group": "last-30-days", "lat": -28.373866575551652, "lon": 75.89628525875143, "alt_km": 520.0410618771457, "timestamp": "2025-12-26T07:29:17.193114+00:00", "meta": {"OBJECT_NAME": "TRANSPORTER-15DC", "OBJECT_ID": "2025-276DC", "EPOCH": "2025-12-25T22:07:12.386496", "MEAN_MOTION": 15.17716043, "ECCENTRICITY": 0.00023256, "INCLINATION": 97.44, "RA_OF_ASC_NODE": 71.4654, "ARG_OF_PERICENTER": 182.3867, "MEAN_ANOMALY": 177.7357, "EPHEMERIS_TYPE": 0, "CLASSIFICATION_TYPE": "U", "NORAD_CAT_ID": 66764, "ELEMENT_SET_NO": 999, "REV_AT_EPOCH": 412, "BSTAR": 0.000424287, "MEAN_MOTION_DOT": 8.494e-05, "MEAN_MOTION_DDOT": 0}, "tle": {"line1": "1 66764U 25276DC  25359.92167114  .00008494  00000+0  42429-3 0  9994", "line2": "2 66764  97.4400  71.4654 0002325 182.3867 177.7357 15.17716043  4128"}}, "geometry": {"type": "Point", "coordinates": [75.89628525875143, -28.373866575551652]}}, {"type": "Feature", "properties": {"norad_id": 66765, "name": "TRANSPORTER-15DD", "group": "last-30-days", "lat": 53.5254411890841, "lon": 61.70703208174925, "alt_km": 503.73783780622307, "timestamp": "2025-12-26T07:29:17.193126+00:00", "meta": {"OBJECT_NAME": "TRANSPORTER-15DD", "OBJECT_ID": "2025-276DD", "EPOCH": "2025-12-25T21:45:47.568384", "MEAN_MOTION": 15.18807555, "ECCENTRICITY": 0.00019866, "INCLINATION": 97.4414, "RA_OF_ASC_NODE": 71.4915, "ARG_OF_PERICENTER": 115.7778, "MEAN_ANOMALY": 244.3662, "EPHEMERIS_TYPE": 0, "CLASSIFICATION_TYPE": "U", "NORAD_CAT_ID": 66765, "ELEMENT_SET_NO": 999, "REV_AT_EPOCH": 412, "BSTAR": 0.00062233829, "MEAN_MOTION_DOT": 0.00012896, "MEAN_MOTION_DDOT": 0}, "tle": {"line1": "1 66765U 25276DD  25359.90680056  .00012896  00000+0  62234-3 0  9995", "line2": "2 66765  97.4414  71.4915 0001986 115.7778 244.3662 15.18807555  4127"}}, "geometry": {"type": "Point", "coordinates": [61.70703208174925, 53.5254411890841]}}, {"type": "Feature", "properties": {"norad_id": 66766, "name": "TRANSPORTER-15DE", "group": "last-30-days", "lat": 34.61715121356032, "lon": 66.68969769076372, "alt_km": 507.4420319816463, "timestamp": "2025-12-26T07:29:17.193136+00:00", "meta": {"OBJECT_NAME": "TRANSPORTER-15DE", "OBJECT_ID": "2025-276DE", "EPOCH": "2025-12-25T21:50:43.093536", "MEAN_MOTION": 15.18448979, "ECCENTRICITY": 0.00019717, "INCLINATION": 97.4355, "RA_OF_ASC_NODE": 71.467, "ARG_OF_PERICENTER": 86.2935, "MEAN_ANOMALY": 273.8525, "EPHEMERIS_TYPE": 0, "CLASSIFICATION_TYPE": "U", "NORAD_CAT_ID": 66766, "ELEMENT_SET_NO": 999, "REV_AT_EPOCH": 412, "BSTAR": 0.00033944751, "MEAN_MOTION_DOT": 6.926e-05, "MEAN_MOTION_DDOT": 0}, "tle": {"line1": "1 66766U 25276DE  25359.91022099  .00006926  00000+0  33945-3 0  9998", "line2": "2 66766  97.4355  71.4670 0001971  86.2935 273.8525 15.18448979  4127"}}, "geometry": {"type": "Point", "coordinates": [66.68969769076372, 34.61715121356032]}}]}